{
    "links": {
        "self": "http://www.neowsapp.com/rest/v1/neo/3803893?api_key=iIulBulltgU6a56xZRHN4H3l9WmuAYTsLGpBGhQ2"
    },
    "id": "3803893",
    "neo_reference_id": "3803893",
    "name": "(2018 HE)",
    "designation": "2018 HE",
    "nasa_jpl_url": "http://ssd.jpl.nasa.gov/sbdb.cgi?sstr=3803893",
    "absolute_magnitude_h": 23.7,
    "estimated_diameter": {
        "kilometers": {
            "estimated_diameter_min": 0.0483676488,
            "estimated_diameter_max": 0.1081533507
        },
        "meters": {
            "estimated_diameter_min": 48.3676488219,
            "estimated_diameter_max": 108.1533506775
        },
        "miles": {
            "estimated_diameter_min": 0.0300542543,
            "estimated_diameter_max": 0.0672033557
        },
        "feet": {
            "estimated_diameter_min": 158.6865169607,
            "estimated_diameter_max": 354.8338390368
        }
    },
    "is_potentially_hazardous_asteroid": false,
    "close_approach_data": [
        {
            "close_approach_date": "2018-04-16",
            "close_approach_date_full": "2018-Apr-16 15:52",
            "epoch_date_close_approach": 1523893920000,
            "relative_velocity": {
                "kilometers_per_second": "13.5060354796",
                "kilometers_per_hour": "48621.7277265762",
                "miles_per_hour": "30211.6507643273"
            },
            "miss_distance": {
                "astronomical": "0.1354816224",
                "lunar": "52.7023511136",
                "kilometers": "20267762.135184288",
                "miles": "12593803.4083796544"
            },
            "orbiting_body": "Earth"
        }
    ],
    "orbital_data": {
        "orbit_id": "2",
        "orbit_determination_date": "2018-04-21 06:48:27",
        "first_observation_date": "2018-04-16",
        "last_observation_date": "2018-04-21",
        "data_arc_in_days": 5,
        "observations_used": 33,
        "orbit_uncertainty": "9",
        "minimum_orbit_intersection": ".12777",
        "jupiter_tisserand_invariant": "3.954",
        "epoch_osculation": "2458225.5",
        "eccentricity": ".3646190632561548",
        "semi_major_axis": "1.751325067694409",
        "inclination": "24.51388021247451",
        "ascending_node_longitude": "30.27714670939682",
        "orbital_period": "846.5421228068114",
        "perihelion_distance": "1.112758562054652",
        "perihelion_argument": "157.7379649171125",
        "aphelion_distance": "2.389891573334167",
        "perihelion_time": "2458204.107678568157",
        "mean_anomaly": "9.097285897515784",
        "mean_motion": ".4252594056470303",
        "equinox": "J2000",
        "orbit_class": {
            "orbit_class_type": "AMO",
            "orbit_class_description": "Near-Earth asteroid orbits similar to that of 1221 Amor",
            "orbit_class_range": "1.017 AU < q (perihelion) < 1.3 AU"
        }
    },
    "is_sentry_object": false
}